ONEWEB-0027             
1 45432U 20020J   23293.68948578  .00000060  00000+0  12225-3 0  9996
2 45432  87.9237 198.7375 0001472  77.2181 282.9115 13.17649290178552
ONEWEB-0064             
1 45433U 20020K   23294.30073691  .00000477  00000+0  13107-2 0  9993
2 45433  87.8994 213.7505 0001536  71.5552 288.5743 13.11420859175575
ONEWEB-0018             
1 45434U 20020L   23293.34131963 -.00000256  00000+0 -75860-3 0  9996
2 45434  87.9002 213.9298 0001931  71.4577 288.6760 13.11416114175381
ONEWEB-0083             
1 45435U 20020M   23294.47442079  .00000281  00000+0  75626-3 0  9991
2 45435  87.8992 213.6911 0001769  75.9194 284.2131 13.11413851175582
ONEWEB-0095             
1 45436U 20020N   23294.31377521  .00000507  00000+0  13957-2 0  9993
2 45436  87.9003 213.7574 0001719  90.2917 269.8408 13.11386852175565
ONEWEB-0092             
1 45437U 20020P   23293.74716743 -.00000149  00000+0 -45581-3 0  9996
2 45437  87.9000 213.8494 0001909  87.1254 273.0092 13.11416195175598
ONEWEB-0085             
1 45438U 20020Q   23294.46793338  .00000557  00000+0  15362-2 0  9996
2 45438  87.8994 213.7146 0001823  68.1121 292.0200 13.11417546175582
ONEWEB-0096             
1 45439U 20020R   23294.47606554  .00000416  00000+0  11385-2 0  9996
2 45439  87.8990 213.6868 0002031  68.4826 291.6518 13.11416481175579
